[{"OBJECT_NAME":"STARLINK-33936","OBJECT_ID":"2025-101M","EPOCH":"2026-03-09T03:31:39.035712","MEAN_MOTION":15.27589114,"ECCENTRICITY":0.00014476,"INCLINATION":43.0037,"RA_OF_ASC_NODE":0.908,"ARG_OF_PERICENTER":286.5421,"MEAN_ANOMALY":73.5271,"EPHEMERIS_TYPE":0,"CLASSIFICATION_TYPE":"U","NORAD_CAT_ID":64005,"ELEMENT_SET_NO":999,"REV_AT_EPOCH":4697,"BSTAR":0.0014286357,"MEAN_MOTION_DOT":0.00039271,"MEAN_MOTION_DDOT":0},{"OBJECT_NAME":"OBJECT D","OBJECT_ID":"2021-102D","EPOCH":"2026-03-09T14:47:14.426880","MEAN_MOTION":15.2846442,"ECCENTRICITY":0.0009157,"INCLINATION":97.3342,"RA_OF_ASC_NODE":112.2633,"ARG_OF_PERICENTER":187.6206,"MEAN_ANOMALY":172.4897,"EPHEMERIS_TYPE":0,"CLASSIFICATION_TYPE":"U","NORAD_CAT_ID":49398,"ELEMENT_SET_NO":999,"REV_AT_EPOCH":23880,"BSTAR":0.00046011,"MEAN_MOTION_DOT":0.00012697,"MEAN_MOTION_DDOT":0}]
